{
  "norad_id": 62727,
  "name": "2025-012C",
  "history": [
    {
      "epoch": "2026-03-28T22:18:22.502304Z",
      "apogee_km": 494.00522078012455,
      "perigee_km": 482.864757053866,
      "latitude_deg": 1.3128601611685464e-05,
      "longitude_deg": 2.933017597522556,
      "height_km": 497.1027382795466,
      "semi_major_axis_km": 6866.571988916995,
      "eccentricity": 0.00081121,
      "inclination_deg": 97.4301,
      "raan_deg": 163.8696,
      "arg_perigee_deg": 178.9333,
      "mean_anomaly_deg": 181.1924,
      "mean_motion_rev_day": 15.25783084
    },
    {
      "epoch": "2026-03-29T04:36:07.638912Z",
      "apogee_km": 493.98407892557316,
      "perigee_km": 482.83006473529167,
      "latitude_deg": -2.0690862843310727e-05,
      "longitude_deg": -91.50290939228297,
      "height_km": 497.07894907484575,
      "semi_major_axis_km": 6866.544071830433,
      "eccentricity": 0.0008122,
      "inclination_deg": 97.4301,
      "raan_deg": 164.1303,
      "arg_perigee_deg": 177.9909,
      "mean_anomaly_deg": 182.1363,
      "mean_motion_rev_day": 15.25792389
    }
  ]
}